STARLINK-31283          
1 59174U 24044Y   26066.16670139 -.00004917  00000+0 -16932-3 0  9999
2 59174  42.9999  74.3596 0001208 268.7431  37.4847 15.27570793  5897
STARLINK-31439          
1 59178U 24045A   26066.16644969  .00001113  00000+0  49987-4 0  9996
2 59178  43.0033 103.4948 0001501 255.6920 104.3765 15.27577551 49149
STARLINK-31410          
1 59179U 24045B   26066.09929821  .00001009  00000+0  46172-4 0  9999
2 59179  43.0022 107.3063 0000937 225.3488 134.7287 15.27572529112769
STARLINK-31395          
1 59180U 24045C   26066.18652289  .00000227  00000+0  17750-4 0  9993
2 59180  43.0002 107.1003 0001191 253.3499 106.7222 15.27587828112774
STARLINK-31486          
1 59181U 24045D   26066.17030887  .00008047  00000+0  30179-3 0  9994
2 59181  43.0003 103.5221 0001735 274.9116  85.1538 15.27562441112816
STARLINK-31411          
1 59182U 24045E   26066.13255794  .00007463  00000+0  28068-3 0  9992
2 59182  43.0004 106.6940 0001259 247.3835 112.6883 15.27553874112777
STARLINK-31382          
1 59184U 24045G   26065.47355233  .00000110  00000+0  13504-4 0  9991
2 59184  42.9981 110.3482 0000624 263.3946  96.6835 15.27577336112676
STARLINK-31394          
1 59185U 24045H   26066.14427124  .00000948  00000+0  43956-4 0  9999
2 59185  43.0052  96.4142 0001378 254.2468 105.8232 15.27595149112890
STARLINK-31403          
1 59186U 24045J   26066.12001268 -.00001338  00000+0 -39108-4 0  9995
2 59186  43.0044  85.6268 0001096 219.3376 140.7396 15.27577800112958
STARLINK-31514          
1 59187U 24045K   26066.16082548  .00003992  00000+0  15452-3 0  9991
2 59187  43.0032 106.9112 0001339 267.4717  92.5981 15.27576917112776
STARLINK-31478          
1 59188U 24045L   26066.15054575  .00005894  00000+0  22338-3 0  9994
2 59188  42.9986 106.8218 0002064 275.0772  84.9844 15.27600796112777
STARLINK-31498          
1 59189U 24045M   26066.17624854  .00000414  00000+0  24568-4 0  9991
2 59189  43.0045 107.0215 0001432 283.0116  77.0576 15.27572809112773
STARLINK-31563          
1 59190U 24045N   26066.13898694  .00000565  00000+0  30057-4 0  9991
2 59190  42.9993 106.7469 0000635 214.8681 145.2129 15.27567939112775
STARLINK-31551          
1 59191U 24045P   26066.12791076  .00005939  00000+0  22544-3 0  9998
2 59191  43.0029 103.2307 0001179 270.9026  89.1691 15.27541821112818
STARLINK-31536          
1 59192U 24045Q   26066.16670139  .00032046  00000+0  11678-2 0  9993
2 59192  43.0017 106.7826 0001417 251.3080 176.4969 15.27613503  5746
STARLINK-31548          
1 59193U 24045R   26066.11728576  .00006946  00000+0  26179-3 0  9991
2 59193  42.9918 107.4303 0001149 149.7523 210.3395 15.27565901112767
STARLINK-31542          
1 59194U 24045S   26066.12484690  .00002999  00000+0  11850-3 0  9993
2 59194  42.9996 106.6342 0001413 256.9824 103.0870 15.27573767112773
