[{"OBJECT_NAME":"STARLINK-31283","OBJECT_ID":"2024-044Y","EPOCH":"2026-03-07T04:00:03.000096","MEAN_MOTION":15.27570793,"ECCENTRICITY":0.0001208,"INCLINATION":42.9999,"RA_OF_ASC_NODE":74.3596,"ARG_OF_PERICENTER":268.7431,"MEAN_ANOMALY":37.4847,"EPHEMERIS_TYPE":0,"CLASSIFICATION_TYPE":"U","NORAD_CAT_ID":59174,"ELEMENT_SET_NO":999,"REV_AT_EPOCH":589,"BSTAR":-0.00016932,"MEAN_MOTION_DOT":-4.917e-5,"MEAN_MOTION_DDOT":0},{"OBJECT_NAME":"STARLINK-31439","OBJECT_ID":"2024-045A","EPOCH":"2026-03-07T03:59:41.253216","MEAN_MOTION":15.27577551,"ECCENTRICITY":0.0001501,"INCLINATION":43.0033,"RA_OF_ASC_NODE":103.4948,"ARG_OF_PERICENTER":255.692,"MEAN_ANOMALY":104.3765,"EPHEMERIS_TYPE":0,"CLASSIFICATION_TYPE":"U","NORAD_CAT_ID":59178,"ELEMENT_SET_NO":999,"REV_AT_EPOCH":4914,"BSTAR":4.9987e-5,"MEAN_MOTION_DOT":1.113e-5,"MEAN_MOTION_DDOT":0},{"OBJECT_NAME":"STARLINK-31410","OBJECT_ID":"2024-045B","EPOCH":"2026-03-07T02:22:59.365344","MEAN_MOTION":15.27572529,"ECCENTRICITY":9.37e-5,"INCLINATION":43.0022,"RA_OF_ASC_NODE":107.3063,"ARG_OF_PERICENTER":225.3488,"MEAN_ANOMALY":134.7287,"EPHEMERIS_TYPE":0,"CLASSIFICATION_TYPE":"U","NORAD_CAT_ID":59179,"ELEMENT_SET_NO":999,"REV_AT_EPOCH":11276,"BSTAR":4.6172e-5,"MEAN_MOTION_DOT":1.009e-5,"MEAN_MOTION_DDOT":0},{"OBJECT_NAME":"STARLINK-31395","OBJECT_ID":"2024-045C","EPOCH":"2026-03-07T04:28:35.577696","MEAN_MOTION":15.27587828,"ECCENTRICITY":0.0001191,"INCLINATION":43.0002,"RA_OF_ASC_NODE":107.1003,"ARG_OF_PERICENTER":253.3499,"MEAN_ANOMALY":106.7222,"EPHEMERIS_TYPE":0,"CLASSIFICATION_TYPE":"U","NORAD_CAT_ID":59180,"ELEMENT_SET_NO":999,"REV_AT_EPOCH":11277,"BSTAR":1.775e-5,"MEAN_MOTION_DOT":2.27e-6,"MEAN_MOTION_DDOT":0},{"OBJECT_NAME":"STARLINK-31486","OBJECT_ID":"2024-045D","EPOCH":"2026-03-07T04:05:14.686368","MEAN_MOTION":15.27562441,"ECCENTRICITY":0.0001735,"INCLINATION":43.0003,"RA_OF_ASC_NODE":103.5221,"ARG_OF_PERICENTER":274.9116,"MEAN_ANOMALY":85.1538,"EPHEMERIS_TYPE":0,"CLASSIFICATION_TYPE":"U","NORAD_CAT_ID":59181,"ELEMENT_SET_NO":999,"REV_AT_EPOCH":11281,"BSTAR":0.00030179,"MEAN_MOTION_DOT":8.047e-5,"MEAN_MOTION_DDOT":0},{"OBJECT_NAME":"STARLINK-31411","OBJECT_ID":"2024-045E","EPOCH":"2026-03-07T03:10:53.006016","MEAN_MOTION":15.27553874,"ECCENTRICITY":0.0001259,"INCLINATION":43.0004,"RA_OF_ASC_NODE":106.694,"ARG_OF_PERICENTER":247.3835,"MEAN_ANOMALY":112.6883,"EPHEMERIS_TYPE":0,"CLASSIFICATION_TYPE":"U","NORAD_CAT_ID":59182,"ELEMENT_SET_NO":999,"REV_AT_EPOCH":11277,"BSTAR":0.00028068,"MEAN_MOTION_DOT":7.463e-5,"MEAN_MOTION_DDOT":0},{"OBJECT_NAME":"STARLINK-31382","OBJECT_ID":"2024-045G","EPOCH":"2026-03-06T11:21:54.921312","MEAN_MOTION":15.27577336,"ECCENTRICITY":6.249e-5,"INCLINATION":42.9981,"RA_OF_ASC_NODE":110.3482,"ARG_OF_PERICENTER":263.3946,"MEAN_ANOMALY":96.6835,"EPHEMERIS_TYPE":0,"CLASSIFICATION_TYPE":"U","NORAD_CAT_ID":59184,"ELEMENT_SET_NO":999,"REV_AT_EPOCH":11267,"BSTAR":1.3503979e-5,"MEAN_MOTION_DOT":1.1e-6,"MEAN_MOTION_DDOT":0},{"OBJECT_NAME":"STARLINK-31394","OBJECT_ID":"2024-045H","EPOCH":"2026-03-07T03:27:45.035136","MEAN_MOTION":15.27595149,"ECCENTRICITY":0.0001378,"INCLINATION":43.0052,"RA_OF_ASC_NODE":96.4142,"ARG_OF_PERICENTER":254.2468,"MEAN_ANOMALY":105.8232,"EPHEMERIS_TYPE":0,"CLASSIFICATION_TYPE":"U","NORAD_CAT_ID":59185,"ELEMENT_SET_NO":999,"REV_AT_EPOCH":11289,"BSTAR":4.3956e-5,"MEAN_MOTION_DOT":9.48e-6,"MEAN_MOTION_DDOT":0},{"OBJECT_NAME":"STARLINK-31403","OBJECT_ID":"2024-045J","EPOCH":"2026-03-07T02:52:49.095552","MEAN_MOTION":15.275778,"ECCENTRICITY":0.0001096,"INCLINATION":43.0044,"RA_OF_ASC_NODE":85.6268,"ARG_OF_PERICENTER":219.3376,"MEAN_ANOMALY":140.7396,"EPHEMERIS_TYPE":0,"CLASSIFICATION_TYPE":"U","NORAD_CAT_ID":59186,"ELEMENT_SET_NO":999,"REV_AT_EPOCH":11295,"BSTAR":-3.9108e-5,"MEAN_MOTION_DOT":-1.338e-5,"MEAN_MOTION_DDOT":0},{"OBJECT_NAME":"STARLINK-31514","OBJECT_ID":"2024-045K","EPOCH":"2026-03-07T03:51:35.321472","MEAN_MOTION":15.27576917,"ECCENTRICITY":0.0001339,"INCLINATION":43.0032,"RA_OF_ASC_NODE":106.9112,"ARG_OF_PERICENTER":267.4717,"MEAN_ANOMALY":92.5981,"EPHEMERIS_TYPE":0,"CLASSIFICATION_TYPE":"U","NORAD_CAT_ID":59187,"ELEMENT_SET_NO":999,"REV_AT_EPOCH":11277,"BSTAR":0.00015452,"MEAN_MOTION_DOT":3.992e-5,"MEAN_MOTION_DDOT":0},{"OBJECT_NAME":"STARLINK-31478","OBJECT_ID":"2024-045L","EPOCH":"2026-03-07T03:36:47.152800","MEAN_MOTION":15.27600796,"ECCENTRICITY":0.0002064,"INCLINATION":42.9986,"RA_OF_ASC_NODE":106.8218,"ARG_OF_PERICENTER":275.0772,"MEAN_ANOMALY":84.9844,"EPHEMERIS_TYPE":0,"CLASSIFICATION_TYPE":"U","NORAD_CAT_ID":59188,"ELEMENT_SET_NO":999,"REV_AT_EPOCH":11277,"BSTAR":0.00022338,"MEAN_MOTION_DOT":5.894e-5,"MEAN_MOTION_DDOT":0},{"OBJECT_NAME":"STARLINK-31498","OBJECT_ID":"2024-045M","EPOCH":"2026-03-07T04:13:47.873856","MEAN_MOTION":15.27572809,"ECCENTRICITY":0.0001432,"INCLINATION":43.0045,"RA_OF_ASC_NODE":107.0215,"ARG_OF_PERICENTER":283.0116,"MEAN_ANOMALY":77.0576,"EPHEMERIS_TYPE":0,"CLASSIFICATION_TYPE":"U","NORAD_CAT_ID":59189,"ELEMENT_SET_NO":999,"REV_AT_EPOCH":11277,"BSTAR":2.4568e-5,"MEAN_MOTION_DOT":4.14e-6,"MEAN_MOTION_DDOT":0},{"OBJECT_NAME":"STARLINK-31563","OBJECT_ID":"2024-045N","EPOCH":"2026-03-07T03:20:08.471616","MEAN_MOTION":15.27567939,"ECCENTRICITY":6.35e-5,"INCLINATION":42.9993,"RA_OF_ASC_NODE":106.7469,"ARG_OF_PERICENTER":214.8681,"MEAN_ANOMALY":145.2129,"EPHEMERIS_TYPE":0,"CLASSIFICATION_TYPE":"U","NORAD_CAT_ID":59190,"ELEMENT_SET_NO":999,"REV_AT_EPOCH":11277,"BSTAR":3.0057e-5,"MEAN_MOTION_DOT":5.65e-6,"MEAN_MOTION_DDOT":0},{"OBJECT_NAME":"STARLINK-31551","OBJECT_ID":"2024-045P","EPOCH":"2026-03-07T03:04:11.489664","MEAN_MOTION":15.27541821,"ECCENTRICITY":0.0001179,"INCLINATION":43.0029,"RA_OF_ASC_NODE":103.2307,"ARG_OF_PERICENTER":270.9026,"MEAN_ANOMALY":89.1691,"EPHEMERIS_TYPE":0,"CLASSIFICATION_TYPE":"U","NORAD_CAT_ID":59191,"ELEMENT_SET_NO":999,"REV_AT_EPOCH":11281,"BSTAR":0.00022544,"MEAN_MOTION_DOT":5.939e-5,"MEAN_MOTION_DDOT":0},{"OBJECT_NAME":"STARLINK-31536","OBJECT_ID":"2024-045Q","EPOCH":"2026-03-07T04:00:03.000096","MEAN_MOTION":15.27613503,"ECCENTRICITY":0.0001417,"INCLINATION":43.0017,"RA_OF_ASC_NODE":106.7826,"ARG_OF_PERICENTER":251.308,"MEAN_ANOMALY":176.4969,"EPHEMERIS_TYPE":0,"CLASSIFICATION_TYPE":"U","NORAD_CAT_ID":59192,"ELEMENT_SET_NO":999,"REV_AT_EPOCH":574,"BSTAR":0.0011678,"MEAN_MOTION_DOT":0.00032046,"MEAN_MOTION_DDOT":0},{"OBJECT_NAME":"STARLINK-31548","OBJECT_ID":"2024-045R","EPOCH":"2026-03-07T02:48:53.489664","MEAN_MOTION":15.27565901,"ECCENTRICITY":0.0001149,"INCLINATION":42.9918,"RA_OF_ASC_NODE":107.4303,"ARG_OF_PERICENTER":149.7523,"MEAN_ANOMALY":210.3395,"EPHEMERIS_TYPE":0,"CLASSIFICATION_TYPE":"U","NORAD_CAT_ID":59193,"ELEMENT_SET_NO":999,"REV_AT_EPOCH":11276,"BSTAR":0.00026179,"MEAN_MOTION_DOT":6.946e-5,"MEAN_MOTION_DDOT":0},{"OBJECT_NAME":"STARLINK-31542","OBJECT_ID":"2024-045S","EPOCH":"2026-03-07T02:59:46.772160","MEAN_MOTION":15.27573767,"ECCENTRICITY":0.0001413,"INCLINATION":42.9996,"RA_OF_ASC_NODE":106.6342,"ARG_OF_PERICENTER":256.9824,"MEAN_ANOMALY":103.087,"EPHEMERIS_TYPE":0,"CLASSIFICATION_TYPE":"U","NORAD_CAT_ID":59194,"ELEMENT_SET_NO":999,"REV_AT_EPOCH":11277,"BSTAR":0.0001185,"MEAN_MOTION_DOT":2.999e-5,"MEAN_MOTION_DDOT":0}]
